[{"OBJECT_NAME":"GLOBALSTAR M069","OBJECT_ID":"2007-020C","EPOCH":"2026-04-27T00:55:03.404640","MEAN_MOTION":12.23469809,"ECCENTRICITY":0.00023688,"INCLINATION":52.0055,"RA_OF_ASC_NODE":36.895,"ARG_OF_PERICENTER":46.0383,"MEAN_ANOMALY":327.5937,"EPHEMERIS_TYPE":0,"CLASSIFICATION_TYPE":"U","NORAD_CAT_ID":31573,"ELEMENT_SET_NO":999,"REV_AT_EPOCH":87254,"BSTAR":-0.00020378732,"MEAN_MOTION_DOT":-1.15e-6,"MEAN_MOTION_DDOT":0},{"OBJECT_NAME":"GLOBALSTAR M072","OBJECT_ID":"2007-020D","EPOCH":"2026-04-27T07:02:59.071200","MEAN_MOTION":11.91657347,"ECCENTRICITY":0.0001487,"INCLINATION":51.9926,"RA_OF_ASC_NODE":235.7382,"ARG_OF_PERICENTER":186.8581,"MEAN_ANOMALY":187.9783,"EPHEMERIS_TYPE":0,"CLASSIFICATION_TYPE":"U","NORAD_CAT_ID":31574,"ELEMENT_SET_NO":999,"REV_AT_EPOCH":86891,"BSTAR":-0.0001128283,"MEAN_MOTION_DOT":-9.2e-7,"MEAN_MOTION_DDOT":0},{"OBJECT_NAME":"GLOBALSTAR M066","OBJECT_ID":"2007-048C","EPOCH":"2026-04-27T05:06:18.093888","MEAN_MOTION":12.30387834,"ECCENTRICITY":0.00042984,"INCLINATION":51.958,"RA_OF_ASC_NODE":204.2466,"ARG_OF_PERICENTER":292.0491,"MEAN_ANOMALY":89.0003,"EPHEMERIS_TYPE":0,"CLASSIFICATION_TYPE":"U","NORAD_CAT_ID":32265,"ELEMENT_SET_NO":999,"REV_AT_EPOCH":85395,"BSTAR":-0.00011592108,"MEAN_MOTION_DOT":-1.08e-6,"MEAN_MOTION_DDOT":0},{"OBJECT_NAME":"GLOBALSTAR M079","OBJECT_ID":"2010-054A","EPOCH":"2026-04-27T03:58:39.650016","MEAN_MOTION":12.6226515,"ECCENTRICITY":5.619e-5,"INCLINATION":52.0041,"RA_OF_ASC_NODE":263.9869,"ARG_OF_PERICENTER":134.8085,"MEAN_ANOMALY":35.7687,"EPHEMERIS_TYPE":0,"CLASSIFICATION_TYPE":"U","NORAD_CAT_ID":37188,"ELEMENT_SET_NO":999,"REV_AT_EPOCH":71610,"BSTAR":2.7766274e-5,"MEAN_MOTION_DOT":-9.9e-7,"MEAN_MOTION_DDOT":0},{"OBJECT_NAME":"GLOBALSTAR M074","OBJECT_ID":"2010-054B","EPOCH":"2026-04-26T20:57:14.207040","MEAN_MOTION":12.6226758,"ECCENTRICITY":6.474e-5,"INCLINATION":52.0015,"RA_OF_ASC_NODE":264.1512,"ARG_OF_PERICENTER":104.6529,"MEAN_ANOMALY":55.1678,"EPHEMERIS_TYPE":0,"CLASSIFICATION_TYPE":"U","NORAD_CAT_ID":37189,"ELEMENT_SET_NO":999,"REV_AT_EPOCH":71667,"BSTAR":-6.245462e-6,"MEAN_MOTION_DOT":-1.05e-6,"MEAN_MOTION_DDOT":0},{"OBJECT_NAME":"GLOBALSTAR M076","OBJECT_ID":"2010-054C","EPOCH":"2026-04-27T03:20:40.406784","MEAN_MOTION":12.62272385,"ECCENTRICITY":4.192e-5,"INCLINATION":52.0031,"RA_OF_ASC_NODE":263.5381,"ARG_OF_PERICENTER":102.6726,"MEAN_ANOMALY":68.5922,"EPHEMERIS_TYPE":0,"CLASSIFICATION_TYPE":"U","NORAD_CAT_ID":37190,"ELEMENT_SET_NO":999,"REV_AT_EPOCH":71642,"BSTAR":6.9240442e-5,"MEAN_MOTION_DOT":-9.1e-7,"MEAN_MOTION_DDOT":0},{"OBJECT_NAME":"GLOBALSTAR M077","OBJECT_ID":"2010-054D","EPOCH":"2026-04-27T07:04:50.011392","MEAN_MOTION":11.675475,"ECCENTRICITY":0.00033115,"INCLINATION":51.9972,"RA_OF_ASC_NODE":308.4688,"ARG_OF_PERICENTER":83.7349,"MEAN_ANOMALY":87.4401,"EPHEMERIS_TYPE":0,"CLASSIFICATION_TYPE":"U","NORAD_CAT_ID":37191,"ELEMENT_SET_NO":999,"REV_AT_EPOCH":71519,"BSTAR":-2.2134224e-5,"MEAN_MOTION_DOT":-7.9e-7,"MEAN_MOTION_DDOT":0},{"OBJECT_NAME":"GLOBALSTAR M075","OBJECT_ID":"2010-054E","EPOCH":"2026-04-27T05:33:46.387296","MEAN_MOTION":12.62266183,"ECCENTRICITY":8.234e-5,"INCLINATION":51.9954,"RA_OF_ASC_NODE":305.3413,"ARG_OF_PERICENTER":101.2299,"MEAN_ANOMALY":69.54,"EPHEMERIS_TYPE":0,"CLASSIFICATION_TYPE":"U","NORAD_CAT_ID":37192,"ELEMENT_SET_NO":999,"REV_AT_EPOCH":71550,"BSTAR":0.00013184164,"MEAN_MOTION_DOT":-8.0e-7,"MEAN_MOTION_DDOT":0},{"OBJECT_NAME":"GLOBALSTAR M073","OBJECT_ID":"2010-054F","EPOCH":"2026-04-27T06:39:53.254944","MEAN_MOTION":12.62266494,"ECCENTRICITY":3.529e-5,"INCLINATION":52.0058,"RA_OF_ASC_NODE":219.2614,"ARG_OF_PERICENTER":152.5891,"MEAN_ANOMALY":225.9172,"EPHEMERIS_TYPE":0,"CLASSIFICATION_TYPE":"U","NORAD_CAT_ID":37193,"ELEMENT_SET_NO":999,"REV_AT_EPOCH":71750,"BSTAR":-3.4617402e-5,"MEAN_MOTION_DOT":-1.1e-6,"MEAN_MOTION_DDOT":0},{"OBJECT_NAME":"GLOBALSTAR M083","OBJECT_ID":"2011-033A","EPOCH":"2026-04-27T07:17:08.039328","MEAN_MOTION":12.62262831,"ECCENTRICITY":2.191e-5,"INCLINATION":51.9836,"RA_OF_ASC_NODE":167.4809,"ARG_OF_PERICENTER":191.4485,"MEAN_ANOMALY":246.2738,"EPHEMERIS_TYPE":0,"CLASSIFICATION_TYPE":"U","NORAD_CAT_ID":37739,"ELEMENT_SET_NO":999,"REV_AT_EPOCH":68652,"BSTAR":6.8318916e-5,"MEAN_MOTION_DOT":-9.2e-7,"MEAN_MOTION_DDOT":0},{"OBJECT_NAME":"GLOBALSTAR M088","OBJECT_ID":"2011-033B","EPOCH":"2026-04-27T07:07:32.167776","MEAN_MOTION":12.6226312,"ECCENTRICITY":4.724e-5,"INCLINATION":52.0214,"RA_OF_ASC_NODE":73.8036,"ARG_OF_PERICENTER":56.2466,"MEAN_ANOMALY":109.118,"EPHEMERIS_TYPE":0,"CLASSIFICATION_TYPE":"U","NORAD_CAT_ID":37740,"ELEMENT_SET_NO":999,"REV_AT_EPOCH":68206,"BSTAR":6.46341e-7,"MEAN_MOTION_DOT":-1.04e-6,"MEAN_MOTION_DDOT":0},{"OBJECT_NAME":"GLOBALSTAR M091","OBJECT_ID":"2011-033C","EPOCH":"2026-04-27T03:29:46.359744","MEAN_MOTION":12.62262794,"ECCENTRICITY":5.484e-5,"INCLINATION":52.0018,"RA_OF_ASC_NODE":37.3041,"ARG_OF_PERICENTER":82.8712,"MEAN_ANOMALY":56.4126,"EPHEMERIS_TYPE":0,"CLASSIFICATION_TYPE":"U","NORAD_CAT_ID":37741,"ELEMENT_SET_NO":999,"REV_AT_EPOCH":68283,"BSTAR":6.9854e-6,"MEAN_MOTION_DOT":-1.03e-6,"MEAN_MOTION_DDOT":0},{"OBJECT_NAME":"GLOBALSTAR M085","OBJECT_ID":"2011-033D","EPOCH":"2026-04-27T01:19:11.854848","MEAN_MOTION":12.62262886,"ECCENTRICITY":7.045e-5,"INCLINATION":52.0146,"RA_OF_ASC_NODE":348.8298,"ARG_OF_PERICENTER":100.7388,"MEAN_ANOMALY":46.4834,"EPHEMERIS_TYPE":0,"CLASSIFICATION_TYPE":"U","NORAD_CAT_ID":37742,"ELEMENT_SET_NO":999,"REV_AT_EPOCH":68333,"BSTAR":0.00012422802,"MEAN_MOTION_DOT":-8.2e-7,"MEAN_MOTION_DDOT":0},{"OBJECT_NAME":"GLOBALSTAR M081","OBJECT_ID":"2011-033E","EPOCH":"2026-04-27T01:58:52.331232","MEAN_MOTION":12.62263686,"ECCENTRICITY":6.514e-5,"INCLINATION":51.9983,"RA_OF_ASC_NODE":351.2411,"ARG_OF_PERICENTER":81.1581,"MEAN_ANOMALY":70.6082,"EPHEMERIS_TYPE":0,"CLASSIFICATION_TYPE":"U","NORAD_CAT_ID":37743,"ELEMENT_SET_NO":999,"REV_AT_EPOCH":68348,"BSTAR":0.00012722377,"MEAN_MOTION_DOT":-8.1e-7,"MEAN_MOTION_DDOT":0},{"OBJECT_NAME":"GLOBALSTAR M089","OBJECT_ID":"2011-033F","EPOCH":"2026-04-27T06:49:49.374336","MEAN_MOTION":12.62266001,"ECCENTRICITY":8.295e-5,"INCLINATION":51.9936,"RA_OF_ASC_NODE":304.7953,"ARG_OF_PERICENTER":77.9703,"MEAN_ANOMALY":92.8193,"EPHEMERIS_TYPE":0,"CLASSIFICATION_TYPE":"U","NORAD_CAT_ID":37744,"ELEMENT_SET_NO":999,"REV_AT_EPOCH":68435,"BSTAR":0.00012930084,"MEAN_MOTION_DOT":-8.1e-7,"MEAN_MOTION_DDOT":0},{"OBJECT_NAME":"GLOBALSTAR M084","OBJECT_ID":"2011-080A","EPOCH":"2026-04-27T02:31:57.143136","MEAN_MOTION":12.62266659,"ECCENTRICITY":1.976e-5,"INCLINATION":51.9992,"RA_OF_ASC_NODE":172.794,"ARG_OF_PERICENTER":60.2087,"MEAN_ANOMALY":316.3487,"EPHEMERIS_TYPE":0,"CLASSIFICATION_TYPE":"U","NORAD_CAT_ID":38040,"ELEMENT_SET_NO":999,"REV_AT_EPOCH":66231,"BSTAR":6.2362294e-5,"MEAN_MOTION_DOT":-9.3e-7,"MEAN_MOTION_DDOT":0}]
